{
    "links": {
        "self": "http://www.neowsapp.com/rest/v1/neo/3835877?api_key=iIulBulltgU6a56xZRHN4H3l9WmuAYTsLGpBGhQ2"
    },
    "id": "3835877",
    "neo_reference_id": "3835877",
    "name": "(2018 VF)",
    "designation": "2018 VF",
    "nasa_jpl_url": "http://ssd.jpl.nasa.gov/sbdb.cgi?sstr=3835877",
    "absolute_magnitude_h": 26.2,
    "estimated_diameter": {
        "kilometers": {
            "estimated_diameter_min": 0.0152951935,
            "estimated_diameter_max": 0.0342010925
        },
        "meters": {
            "estimated_diameter_min": 15.2951935344,
            "estimated_diameter_max": 34.201092472
        },
        "miles": {
            "estimated_diameter_min": 0.0095039897,
            "estimated_diameter_max": 0.021251567
        },
        "feet": {
            "estimated_diameter_min": 50.1810827555,
            "estimated_diameter_max": 112.2083122258
        }
    },
    "is_potentially_hazardous_asteroid": false,
    "close_approach_data": [
        {
            "close_approach_date": "2018-10-22",
            "close_approach_date_full": "2018-Oct-22 06:38",
            "epoch_date_close_approach": 1540190280000,
            "relative_velocity": {
                "kilometers_per_second": "9.2024746321",
                "kilometers_per_hour": "33128.908675438",
                "miles_per_hour": "20585.0155044687"
            },
            "miss_distance": {
                "astronomical": "0.0295088612",
                "lunar": "11.4789470068",
                "kilometers": "4414462.781645644",
                "miles": "2743019.9769881272"
            },
            "orbiting_body": "Earth"
        }
    ],
    "orbital_data": {
        "orbit_id": "5",
        "orbit_determination_date": "2019-01-21 07:50:43",
        "first_observation_date": "2018-11-01",
        "last_observation_date": "2018-11-11",
        "data_arc_in_days": 10,
        "observations_used": 28,
        "orbit_uncertainty": "9",
        "minimum_orbit_intersection": ".00368167",
        "jupiter_tisserand_invariant": "3.860",
        "epoch_osculation": "2458424.5",
        "eccentricity": ".4796107349162395",
        "semi_major_axis": "1.849110733925113",
        "inclination": "1.083003108528188",
        "ascending_node_longitude": "213.3631905414665",
        "orbital_period": "918.423116616217",
        "perihelion_distance": ".9622573758857826",
        "perihelion_argument": "141.8892690108801",
        "aphelion_distance": "2.735964091964444",
        "perihelion_time": "2458387.782675230464",
        "mean_anomaly": "14.39231730766255",
        "mean_motion": ".3919761964685322",
        "equinox": "J2000",
        "orbit_class": {
            "orbit_class_type": "APO",
            "orbit_class_description": "Near-Earth asteroid orbits which cross the Earth’s orbit similar to that of 1862 Apollo",
            "orbit_class_range": "a (semi-major axis) > 1.0 AU; q (perihelion) < 1.017 AU"
        }
    },
    "is_sentry_object": false
}